SARAL                   
1 39086U 13009A   22226.52168639  .00000026  00000+0  26020-4 0  9994
2 39086  98.5488  51.2994 0002318  93.4885 266.6564 14.32056592494796
GAOFEN 1                
1 39150U 13018A   22226.51100702  .00000397  00000+0  64376-4 0  9999
2 39150  98.0709 292.8864 0023578  96.5235 263.8670 14.76444908501305
VNREDSAT 1              
1 39160U 13021B   22226.43794419  .00000299  00000+0  67349-4 0  9993
2 39160  98.0762 300.6106 0001491  92.2278 267.9100 14.62996271495093
ARIRANG-5 (KOMPSAT-5)   
1 39227U 13042A   22226.58558319  .00000020  00000+0  57425-5 0  9990
2 39227  97.6322  51.5330 0001834  97.9643 347.7158 15.04508325493021
SKYSAT-A                
1 39418U 13066C   22226.14712143  .00001929  00000+0  15857-3 0  9997
2 39418  97.5506 296.2621 0027747  68.5113 291.9065 15.00006280477303
DUBAISAT-2              
1 39419U 13066D   22226.46865743  .00000987  00000+0  94728-4 0  9996
2 39419  97.4432 255.5326 0015285  83.9721 276.3217 14.95121374475861
GPM-CORE                
1 39574U 14009C   22226.48272851  .00014475  00000+0  21079-3 0  9995
2 39574  65.0032 350.7752 0009987 278.1687  81.8327 15.55909562480634
SENTINEL-1A             
1 39634U 14016A   22226.46483932 -.00000047  00000+0 -19916-6 0  9994
2 39634  98.1828 233.2012 0001358  82.9689 277.1666 14.59197688445483
KAZEOSAT 1              
1 39731U 14024A   22226.49651709  .00000073  00000+0  35765-4 0  9998
2 39731  98.4617 301.5002 0001099  86.9312 273.2010 14.41981521436452
ALOS-2                  
1 39766U 14029A   22226.50149254 -.00000107  00000+0 -74651-5 0  9998
2 39766  97.9228 322.7996 0001536  91.2613 268.8767 14.79470944444213
KAZEOSAT 2              
1 40010U 14033A   22226.50516647  .00000294  00000+0  43397-4 0  9998
2 40010  97.7157 109.6704 0013301 247.4973 112.4829 14.82082119441040
HODOYOSHI-4             
1 40011U 14033B   22226.46001894  .00000551  00000+0  75952-4 0  9995
2 40011  97.6711  97.2779 0025040 246.9179 112.9375 14.81740520440681
DEIMOS-2                
1 40013U 14033D   22226.50203485  .00000499  00000+0  63937-4 0  9993
2 40013  97.7538 122.1397 0000676  45.3285 314.7988 14.85423237441817
HODOYOSHI-3             
1 40015U 14033F   22226.52042607  .00000299  00000+0  46867-4 0  9995
2 40015  97.6363  77.5875 0035194 273.8825  85.8364 14.78961769439897
SPOT 7                  
1 40053U 14034A   22226.46718918  .00000138  00000+0  39442-4 0  9999
2 40053  98.1694 292.9439 0001293  96.0672 264.0682 14.58565665432541
SKYSAT-B                
1 40072U 14037D   22226.50907024  .00000391  00000+0  56934-4 0  9992
2 40072  98.4014  97.8693 0007396 122.7511 237.4414 14.81777322437840
WORLDVIEW-3 (WV-3)      
1 40115U 14048A   22226.46030670  .00000477  00000+0  62306-4 0  9996
2 40115  97.8519 300.5547 0001874  48.1689 311.9686 14.84934529433724
GAOFEN 2                
1 40118U 14049A   22226.48855225  .00000556  00000+0  78790-4 0  9995
2 40118  97.7588 293.0647 0008181 115.6805 244.5263 14.80693017431682
YAOGAN 21               
1 40143U 14053A   22226.39861282  .00004606  00000+0  19528-3 0  9991
2 40143  97.3471 292.5455 0016635  34.4031  28.0128 15.23494244441371
YAOGAN 22               
1 40275U 14063A   22226.22257637 -.00000008  00000+0  10000-3 0  9992
2 40275 100.5749 346.6512 0006943 115.1916 244.9916 13.15442115375343
ASNARO                  
1 40298U 14070A   22226.58101140  .00005618  00000+0  26746-3 0  9996
2 40298  97.4665 308.0284 0000941 132.2251 338.2134 15.19549489431026
HODOYOSHI-1             
1 40299U 14070B   22226.60197578  .00004108  00000+0  15567-3 0  9992
2 40299  97.2405 293.0246 0010459 294.2822 213.0420 15.27393238431932
QSAT-EOS                
1 40301U 14070D   22226.61150307  .00015670  00000+0  42841-3 0  9997
2 40301  97.2048 292.9744 0017856 258.9323 239.4094 15.37297168432432
YAOGAN 23               
1 40305U 14071A   22226.62301250  .00004783  00000+0  21242-3 0  9993
2 40305  97.6098 178.7066 0001300  84.9757  30.6267 15.22037022429409
YAOGAN 24               
1 40310U 14072A   22226.53335276  .00000455  00000+0  73087-4 0  9992
2 40310  97.9817 346.2101 0018902  88.7705 271.5682 14.76192076416806
CBERS 4                 
1 40336U 14079A   22226.47796291  .00000035  00000+0  27234-4 0  9995
2 40336  98.4806 299.3278 0000614  89.0264 271.0996 14.35465314402739
RESURS P2               
1 40360U 14087A   22226.56638740  .00004373  00000+0  12248-3 0  9992
2 40360  97.2062 310.3252 0007667 233.1174 240.2635 15.37114382427183
YAOGAN 26               
1 40362U 14088A   22226.57748169  .00004854  00000+0  20391-3 0  9995
2 40362  97.1432 273.5614 0004935 245.8602 272.4124 15.23871444424875
SMAP                    
1 40376U 15003A   22226.48837703  .00000254  00000+0  57899-4 0  9995
2 40376  98.1158 232.4506 0001919  15.4836 344.6425 14.63565571402471
KOMPSAT-3A              
1 40536U 15014A   22226.57100947  .00002851  00000+0  16919-3 0  9990
2 40536  97.5333 168.4062 0004192 262.9328 207.6036 15.12138260407829
SENTINEL-2A             
1 40697U 15028A   22226.37548976  .00000048  00000+0  35135-4 0  9997
2 40697  98.5670 300.3324 0001204  86.1681 273.9646 14.30816013373136
GAOFEN 8                
1 40701U 15030A   22226.37364103  .00006705  00000+0  28576-3 0  9990
2 40701  97.5687   1.4054 0001483 100.0043 346.6330 15.23285583397202
CARBONITE 1 (CBNT-1)    
1 40718U 15032D   22226.44744165  .00000692  00000+0  10865-3 0  9999
2 40718  97.7309  88.2583 0016224 182.3374 177.7751 14.75465986381972
YAOGAN 27               
1 40878U 15040A   22226.24277725 -.00000005  00000+0  10000-3 0  9996
2 40878 100.1272 255.6059 0008174 206.8017 153.2675 13.15980131334638
GAOFEN 9-01             
1 40894U 15047A   22226.48138088  .00000397  00000+0  63958-4 0  9999
2 40894  97.8143 294.9387 0033416  24.2469 336.0306 14.76301708372746
LAPAN-A2                
1 40931U 15052B   22226.25899373  .00000979  00000+0  46816-4 0  9993
2 40931   5.9974 116.7087 0013658 273.0790  86.7775 14.76843431371905
YAOGAN 28               
1 41026U 15064A   22226.63819535  .00004553  00000+0  19333-3 0  9991
2 41026  97.5611   9.7795 0006395  99.0353 318.0420 15.23573532377093
YAOGAN 29               
1 41038U 15069A   22226.45648229  .00000281  00000+0  43254-4 0  9993
2 41038  98.0575 226.9213 0000433  69.8758 290.2507 14.80902294362870
KENT RIDGE 1            
1 41167U 15077B   22226.10333333  .00001913  00000+0  74230-4 0  9995
2 41167  14.9826 148.7403 0010839  91.5890 109.8034 15.10186039367972
TELEOS 1                
1 41169U 15077D   22226.33834848  .00004515  00000+0  20839-3 0  9995
2 41169  14.9756 114.6321 0009959 155.5568 204.5283 15.13324040368307
GAOFEN 4                
1 41194U 15083A   22226.19604362 -.00000353  00000+0  00000+0 0  9991
2 41194   0.0733 268.9155 0004189 267.8497 322.1173  1.00272574 24457
JASON-3                 
1 41240U 16002A   22226.48660957 -.00000058  00000+0  12088-4 0  9995
2 41240  66.0407 168.5358 0008203 267.3852  92.6224 12.80930239307347
SENTINEL-3A             
1 41335U 16011A   22226.47872129  .00000058  00000+0  41889-4 0  9995
2 41335  98.6194 292.9269 0001175  99.3613 260.7700 14.26740040338047
SENTINEL-1B             
1 41456U 16025A   22226.49863695 -.00000033  00000+0  27357-5 0  9993
2 41456  98.1826 233.0605 0001340  80.2490 279.8830 14.59198332335650
ZIYUAN 3-2 (ZY 3-2)     
1 41556U 16033A   22226.61059361  .00003762  00000+0  17119-3 0  9998
2 41556  97.5332 295.3496 0005365 102.0896   4.0012 15.21326497344744
NUSAT-1 (FRESCO)        
1 41557U 16033B   22226.59005808  .00011443  00000+0  32948-3 0  9995
2 41557  97.3903 324.4385 0011293 162.5449 322.4512 15.35859161346300
NUSAT-2 (BATATA)        
1 41558U 16033C   22226.61122998  .00011359  00000+0  30805-3 0  9995
2 41558  97.4110 330.4867 0010894 151.6683 332.8279 15.37735508346584
CARTOSAT-2C             
1 41599U 16040A   22226.43826602  .00002767  00000+0  13414-3 0  9991
2 41599  97.4831 285.5226 0012918 347.5621 107.6074 15.19299482340733
SKYSAT-C1               
1 41601U 16040C   22226.19071703  .00006630  00000+0  17915-3 0  9995
2 41601  97.1522 300.1254 0002267 119.3299 240.8173 15.38058664342871
LAPAN-A3                
1 41603U 16040E   22226.60757728  .00001208  00000+0  57678-4 0  9998
2 41603  97.2031 261.0960 0012020 323.1016 155.1927 15.20805689340879
BIROS                   
1 41604U 16040F   22226.48269117  .00002731  00000+0  11319-3 0  9998
2 41604  97.2064 268.7077 0009855 290.9730  69.0454 15.24677608341304
GAOFEN 3                
1 41727U 16049A   22226.53759008  .00000010  00000+0  16333-4 0  9992
2 41727  98.4086 233.9978 0001763 100.1507 259.9889 14.42215947316469
SKYSAT-C4               
1 41771U 16058B   22226.34677179  .00006429  00000+0  17366-3 0  9994
2 41771  97.1151 289.8942 0001805 167.6817 192.4473 15.38077467329853
SKYSAT-C5               
1 41772U 16058C   22226.51178497  .00003511  00000+0  13513-3 0  9992
2 41772  97.2614 288.5054 0001652  86.3910 273.7518 15.27016542328633
SKYSAT-C2               
1 41773U 16058D   22226.13106207  .00006637  00000+0  17913-3 0  9991
2 41773  97.1164 290.0740 0002999 107.5878 252.5695 15.38089928329842
SKYSAT-C3               
1 41774U 16058E   22226.51678082  .00008001  00000+0  19199-3 0  9994
2 41774  97.1155 291.1389 0002051 136.1835 223.9576 15.41626135329946
ALSAT 1B                
1 41785U 16059C   22226.41954405  .00000216  00000+0  43886-4 0  9993
2 41785  97.9058 268.9136 0010843  48.1409 312.0727 14.70079262314336
PATHFINDER 1            
1 41787U 16059E   22226.10304196  .00000336  00000+0  72370-4 0  9990
2 41787  97.9083 267.6816 0030333 346.7027  13.3373 14.64065933314179
SCATSAT 1               
1 41790U 16059H   22226.53906774  .00000098  00000+0  36044-4 0  9994
2 41790  98.3162 269.8256 0005895  38.6551 321.5064 14.50911420311491
GOKTURK 1A              
1 41875U 16073A   22226.48711172 -.00002881  00000+0 -55641-3 0  9991
2 41875  98.1251 120.5100 0001233  97.7239 262.4007 14.62750640303763
